KUIPER-00159            
1 67764U 26030A   26068.63224971  .00026620  00000+0  76096-3 0  9993
2 67764  51.8841 219.4438 0005012  44.9181 315.2210 15.35788737  5086
KUIPER-00160            
1 67765U 26030B   26068.76407567  .00036682  00000+0  10486-2 0  9991
2 67765  51.8805 218.8175 0005272  54.1950 305.9525 15.35623214  5109
KUIPER-00177            
1 67766U 26030C   26069.16668981 -.00908842  00000+0 -29417-1 0  9997
2 67766  51.8841 216.7100 0001716  11.0257 136.6685 15.34256680  5065
KUIPER-00178            
1 67767U 26030D   26068.63574693  .00024464  00000+0  70511-3 0  9995
2 67767  51.8828 219.4634 0006451  46.2779 313.8741 15.35571325  5084
KUIPER-00180            
1 67768U 26030E   26069.19848469 -.00033497  00000+0 -10857-2 0  9997
2 67768  51.8824 217.2131 0014876  72.3443 287.9165 15.31153377  5166
KUIPER-00197            
1 67769U 26030F   26068.42652515  .00048662  00000+0  13526-2 0  9992
2 67769  51.8831 220.3144 0001600  67.2198 292.8958 15.36379862  5052
KUIPER-00198            
1 67770U 26030G   26068.62744222  .00033885  00000+0  95567-3 0  9990
2 67770  51.8806 219.4038 0003583  35.8948 324.2279 15.36089150  5080
KUIPER-00199            
1 67771U 26030H   26068.84924475  .00034812  00000+0  10340-2 0  9991
2 67771  51.8811 218.6320 0010841  59.6620 300.5437 15.34402964  5115
KUIPER-00200            
1 67772U 26030J   26068.67647234  .00025755  00000+0  70619-3 0  9990
2 67772  51.8819 218.9881 0001048 264.9914  95.0953 15.37115765  5094
KUIPER-00203            
1 67773U 26030K   26069.16668981 -.01986682  00000+0 -12680+0 0  9996
2 67773  51.8866 217.8901 0011616  62.6514 181.7427 15.11881087  3725
KUIPER-00205            
1 67774U 26030L   26069.14271337  .00047309  00000+0  13113-2 0  9996
2 67774  51.8812 216.8590 0003307  22.6040 337.5092 15.36475316  5168
KUIPER-00208            
1 67775U 26030M   26068.67231510  .00043852  00000+0  13883-2 0  9996
2 67775  51.8846 219.6993 0015524  57.3146 302.9333 15.32208734  5089
KUIPER-00209            
1 67776U 26030N   26068.61786546  .00035298  00000+0  11963-2 0  9997
2 67776  51.8838 220.0775 0012191  59.1967 301.0215 15.30161950  5077
KUIPER-00213            
1 67777U 26030P   26069.06323968 -.00092175  00000+0 -28857-2 0  9992
2 67777  51.8820 217.8092 0014849  62.8967 297.3531 15.32729070  5149
KUIPER-00214            
1 67778U 26030Q   26068.74506972  .00027783  00000+0  76865-3 0  9999
2 67778  51.8850 218.7034 0000352 289.1658  70.9291 15.36794517  5100
KUIPER-00215            
1 67779U 26030R   26068.71710324  .00030069  00000+0  89269-3 0  9998
2 67779  51.8839 219.2565 0010367  59.8870 300.3142 15.34495766  5093
KUIPER-00218            
1 67780U 26030S   26068.64042744  .00022104  00000+0  64584-3 0  9990
2 67780  51.8829 219.4934 0006939  50.9637 309.1966 15.35202151  5084
